{
  "type": "FeatureCollection",
  "features": [
    {
      "type": "Feature",
      "properties": {
        "norad_id": 30556,
        "name": "FENGYUN 1C DEB",
        "group": "fengyun-1c-debris",
        "lat": 20.58253115311728,
        "lon": -14.474546912608398,
        "alt_km": 937.8667565777114,
        "timestamp": "2025-12-21T22:41:41.737179+00:00",
        "meta_object_name": "FENGYUN 1C DEB",
        "meta_object_id": "1999-025AKW",
        "meta_epoch": "2025-12-21T11:22:50.056608",
        "meta_mean_motion": 14.01372228,
        "meta_eccentricity": 0.00685209,
        "meta_inclination": 98.7809,
        "meta_ra_of_asc_node": 348.3994,
        "meta_arg_of_pericenter": 212.8898,
        "meta_mean_anomaly": 310.8778,
        "meta_ephemeris_type": 0,
        "meta_classification_type": "U",
        "meta_norad_cat_id": 30556,
        "meta_element_set_no": 999,
        "meta_rev_at_epoch": 96379,
        "meta_bstar": 0.00012657463,
        "meta_mean_motion_dot": 1.52e-06,
        "meta_mean_motion_ddot": 0,
        "tle_line1": "1 30556U 99025AKW 25355.47419047  .00000152  00000+0  12657-3 0  9991",
        "tle_line2": "2 30556  98.7809 348.3994 0068520 212.8898 310.8778 14.01372228963799"
      },
      "geometry": {
        "type": "Point",
        "coordinates": [
          -14.474546912608398,
          20.58253115311728
        ]
      }
    },
    {
      "type": "Feature",
      "properties": {
        "norad_id": 30557,
        "name": "FENGYUN 1C DEB",
        "group": "fengyun-1c-debris",
        "lat": 78.61871510837493,
        "lon": -67.68062978767014,
        "alt_km": 865.5722355715825,
        "timestamp": "2025-12-21T22:41:41.737189+00:00",
        "meta_object_name": "FENGYUN 1C DEB",
        "meta_object_id": "1999-025AKX",
        "meta_epoch": "2025-12-20T03:40:45.719616",
        "meta_mean_motion": 14.10830894,
        "meta_eccentricity": 0.00685516,
        "meta_inclination": 98.9202,
        "meta_ra_of_asc_node": 59.2589,
        "meta_arg_of_pericenter": 211.8311,
        "meta_mean_anomaly": 147.8708,
        "meta_ephemeris_type": 0,
        "meta_classification_type": "U",
        "meta_norad_cat_id": 30557,
        "meta_element_set_no": 999,
        "meta_rev_at_epoch": 96405,
        "meta_bstar": 0.00083897282,
        "meta_mean_motion_dot": 1.492e-05,
        "meta_mean_motion_ddot": 0,
        "tle_line1": "1 30557U 99025AKX 25354.15330694  .00001492  00000+0  83897-3 0  9998",
        "tle_line2": "2 30557  98.9202  59.2589 0068551 211.8311 147.8708 14.10830894964059"
      },
      "geometry": {
        "type": "Point",
        "coordinates": [
          -67.68062978767014,
          78.61871510837493
        ]
      }
    },
    {
      "type": "Feature",
      "properties": {
        "norad_id": 30558,
        "name": "FENGYUN 1C DEB",
        "group": "fengyun-1c-debris",
        "lat": -16.118147989089618,
        "lon": 138.91071305421454,
        "alt_km": 1158.4205226583035,
        "timestamp": "2025-12-21T22:41:41.737200+00:00",
        "meta_object_name": "FENGYUN 1C DEB",
        "meta_object_id": "1999-025AKY",
        "meta_epoch": "2025-12-18T02:35:59.256672",
        "meta_mean_motion": 13.28535877,
        "meta_eccentricity": 0.04271131,
        "meta_inclination": 99.4659,
        "meta_ra_of_asc_node": 132.6231,
        "meta_arg_of_pericenter": 260.3076,
        "meta_mean_anomaly": 94.9567,
        "meta_ephemeris_type": 0,
        "meta_classification_type": "U",
        "meta_norad_cat_id": 30558,
        "meta_element_set_no": 999,
        "meta_rev_at_epoch": 90829,
        "meta_bstar": 0.0032374201,
        "meta_mean_motion_dot": 2.396e-05,
        "meta_mean_motion_ddot": 0,
        "tle_line1": "1 30558U 99025AKY 25352.10832473  .00002396  00000+0  32374-2 0  9991",
        "tle_line2": "2 30558  99.4659 132.6231 0427113 260.3076  94.9567 13.28535877908292"
      },
      "geometry": {
        "type": "Point",
        "coordinates": [
          138.91071305421454,
          -16.118147989089618
        ]
      }
    },
    {
      "type": "Feature",
      "properties": {
        "norad_id": 30560,
        "name": "FENGYUN 1C DEB",
        "group": "fengyun-1c-debris",
        "lat": 53.9290563308833,
        "lon": -22.63143793972353,
        "alt_km": 883.5224566704901,
        "timestamp": "2025-12-21T22:41:41.737210+00:00",
        "meta_object_name": "FENGYUN 1C DEB",
        "meta_object_id": "1999-025ALA",
        "meta_epoch": "2025-12-21T12:50:25.509408",
        "meta_mean_motion": 14.17035472,
        "meta_eccentricity": 0.0115361,
        "meta_inclination": 98.664,
        "meta_ra_of_asc_node": 349.0509,
        "meta_arg_of_pericenter": 186.3727,
        "meta_mean_anomaly": 296.1019,
        "meta_ephemeris_type": 0,
        "meta_classification_type": "U",
        "meta_norad_cat_id": 30560,
        "meta_element_set_no": 999,
        "meta_rev_at_epoch": 97493,
        "meta_bstar": 0.00019546688,
        "meta_mean_motion_dot": 3.77e-06,
        "meta_mean_motion_ddot": 0,
        "tle_line1": "1 30560U 99025ALA 25355.53501747  .00000377  00000+0  19547-3 0  9996",
        "tle_line2": "2 30560  98.6640 349.0509 0115361 186.3727 296.1019 14.17035472974934"
      },
      "geometry": {
        "type": "Point",
        "coordinates": [
          -22.63143793972353,
          53.9290563308833
        ]
      }
    },
    {
      "type": "Feature",
      "properties": {
        "norad_id": 30561,
        "name": "FENGYUN 1C DEB",
        "group": "fengyun-1c-debris",
        "lat": -35.02932278608332,
        "lon": 3.999981137710046,
        "alt_km": 885.3242869715305,
        "timestamp": "2025-12-21T22:41:41.737220+00:00",
        "meta_object_name": "FENGYUN 1C DEB",
        "meta_object_id": "1999-025ALB",
        "meta_epoch": "2025-12-20T23:08:22.687872",
        "meta_mean_motion": 14.11280602,
        "meta_eccentricity": 0.006076,
        "meta_inclination": 98.7246,
        "meta_ra_of_asc_node": 356.867,
        "meta_arg_of_pericenter": 90.9814,
        "meta_mean_anomaly": 290.5147,
        "meta_ephemeris_type": 0,
        "meta_classification_type": "U",
        "meta_norad_cat_id": 30561,
        "meta_element_set_no": 999,
        "meta_rev_at_epoch": 97094,
        "meta_bstar": 0.00023971,
        "meta_mean_motion_dot": 3.98e-06,
        "meta_mean_motion_ddot": 0,
        "tle_line1": "1 30561U 99025ALB 25354.96415148  .00000398  00000+0  23971-3 0  9991",
        "tle_line2": "2 30561  98.7246 356.8670 0060760  90.9814 290.5147 14.11280602970940"
      },
      "geometry": {
        "type": "Point",
        "coordinates": [
          3.999981137710046,
          -35.02932278608332
        ]
      }
    },
    {
      "type": "Feature",
      "properties": {
        "norad_id": 30562,
        "name": "FENGYUN 1C DEB",
        "group": "fengyun-1c-debris",
        "lat": -42.92416539853227,
        "lon": -124.59826945330829,
        "alt_km": 779.9912617533155,
        "timestamp": "2025-12-21T22:41:41.737231+00:00",
        "meta_object_name": "FENGYUN 1C DEB",
        "meta_object_id": "1999-025ALC",
        "meta_epoch": "2025-12-21T03:13:27.960960",
        "meta_mean_motion": 14.23106423,
        "meta_eccentricity": 0.00597176,
        "meta_inclination": 98.7632,
        "meta_ra_of_asc_node": 62.8424,
        "meta_arg_of_pericenter": 241.105,
        "meta_mean_anomaly": 148.5924,
        "meta_ephemeris_type": 0,
        "meta_classification_type": "U",
        "meta_norad_cat_id": 30562,
        "meta_element_set_no": 999,
        "meta_rev_at_epoch": 97119,
        "meta_bstar": 0.001085954,
        "meta_mean_motion_dot": 2.452e-05,
        "meta_mean_motion_ddot": 0,
        "tle_line1": "1 30562U 99025ALC 25355.13435140  .00002452  00000+0  10860-2 0  9991",
        "tle_line2": "2 30562  98.7632  62.8424 0059717 241.1050 148.5924 14.23106423971197"
      },
      "geometry": {
        "type": "Point",
        "coordinates": [
          -124.59826945330829,
          -42.92416539853227
        ]
      }
    },
    {
      "type": "Feature",
      "properties": {
        "norad_id": 30564,
        "name": "FENGYUN 1C DEB",
        "group": "fengyun-1c-debris",
        "lat": -56.427646368227144,
        "lon": 20.96050376387629,
        "alt_km": 1008.2999302037042,
        "timestamp": "2025-12-21T22:41:41.737241+00:00",
        "meta_object_name": "FENGYUN 1C DEB",
        "meta_object_id": "1999-025ALE",
        "meta_epoch": "2025-12-20T23:20:49.892352",
        "meta_mean_motion": 14.05771142,
        "meta_eccentricity": 0.02029279,
        "meta_inclination": 98.7956,
        "meta_ra_of_asc_node": 6.5254,
        "meta_arg_of_pericenter": 95.8526,
        "meta_mean_anomaly": 327.3967,
        "meta_ephemeris_type": 0,
        "meta_classification_type": "U",
        "meta_norad_cat_id": 30564,
        "meta_element_set_no": 999,
        "meta_rev_at_epoch": 96411,
        "meta_bstar": 0.00058897424,
        "meta_mean_motion_dot": 1.117e-05,
        "meta_mean_motion_ddot": 0,
        "tle_line1": "1 30564U 99025ALE 25354.97279968  .00001117  00000+0  58897-3 0  9998",
        "tle_line2": "2 30564  98.7956   6.5254 0202927  95.8526 327.3967 14.05771142964113"
      },
      "geometry": {
        "type": "Point",
        "coordinates": [
          20.96050376387629,
          -56.427646368227144
        ]
      }
    }
  ]
}